[
  {
    "id": 0,
    "lat": 51.0486,
    "lng": -114.0708,
    "zip": "A1B 2BC",
    "address": "0 Main St",
    "cityId": 14
  },
  {
    "id": 1,
    "lat": 51.0512,
    "lng": -114.0654,
    "zip": "A1B 2BC",
    "address": "1 Main St",
    "cityId": 14
  },
  {
    "id": 2,
    "lat": 51.0469,
    "lng": -114.0741,
    "zip": "A1B 2BC",
    "address": "2 Main St",
    "cityId": 14
  },
  {
    "id": 3,
    "lat": 51.0498,
    "lng": -114.0783,
    "zip": "A1B 2BC",
    "address": "3 Main St",
    "cityId": 14
  },
  {
    "id": 4,
    "lat": 51.0455,
    "lng": -114.0692,
    "zip": "A1B 2BC",
    "address": "4 Main St",
    "cityId": 14
  },
  {
    "id": 5,
    "lat": 51.0501,
    "lng": -114.0725,
    "zip": "A1B 2BC",
    "address": "5 Main St",
    "cityId": 14
  },
  {
    "id": 6,
    "lat": 51.0474,
    "lng": -114.0679,
    "zip": "A1B 2BC",
    "address": "6 Main St",
    "cityId": 14
  },
  {
    "id": 7,
    "lat": 51.049,
    "lng": -114.0758,
    "zip": "A1B 2BC",
    "address": "7 Main St",
    "cityId": 14
  },
  {
    "id": 8,
    "lat": 51.0461,
    "lng": -114.0684,
    "zip": "A1B 2BC",
    "address": "8 Main St",
    "cityId": 14
  },
  {
    "id": 9,
    "lat": 51.0482,
    "lng": -114.0736,
    "zip": "A1B 2BC",
    "address": "9 Main St",
    "cityId": 14
  },
  {
    "id": 10,
    "lat": 51.0517,
    "lng": -114.071,
    "zip": "A1B 2BC",
    "address": "10 Main St",
    "cityId": 14
  },
  {
    "id": 11,
    "lat": 51.0459,
    "lng": -114.0745,
    "zip": "A1B 2BC",
    "address": "11 Main St",
    "cityId": 14
  },
  {
    "id": 12,
    "lat": 51.0495,
    "lng": -114.0699,
    "zip": "A1B 2BC",
    "address": "12 Main St",
    "cityId": 14
  },
  {
    "id": 13,
    "lat": 51.0478,
    "lng": -114.0721,
    "zip": "A1B 2BC",
    "address": "13 Main St",
    "cityId": 14
  },
  {
    "id": 14,
    "lat": 51.0467,
    "lng": -114.0702,
    "zip": "A1B 2BC",
    "address": "14 Main St",
    "cityId": 14
  },
  {
    "id": 15,
    "lat": 51.0505,
    "lng": -114.0687,
    "zip": "A1B 2BC",
    "address": "15 Main St",
    "cityId": 14
  },
  {
    "id": 16,
    "lat": 51.0489,
    "lng": -114.0718,
    "zip": "A1B 2BC",
    "address": "16 Main St",
    "cityId": 14
  },
  {
    "id": 17,
    "lat": 51.0452,
    "lng": -114.0676,
    "zip": "A1B 2BC",
    "address": "17 Main St",
    "cityId": 14
  },
  {
    "id": 18,
    "lat": 51.0493,
    "lng": -114.0732,
    "zip": "A1B 2BC",
    "address": "18 Main St",
    "cityId": 14
  },
  {
    "id": 19,
    "lat": 51.0471,
    "lng": -114.075,
    "zip": "A1B 2BC",
    "address": "19 Main St",
    "cityId": 14
  },
  {
    "id": 20,
    "lat": 51.0464,
    "lng": -114.0697,
    "zip": "A1B 2BC",
    "address": "20 Main St",
    "cityId": 14
  },
  {
    "id": 21,
    "lat": 51.05,
    "lng": -114.0741,
    "zip": "A1B 2BC",
    "address": "21 Main St",
    "cityId": 14
  },
  {
    "id": 22,
    "lat": 51.0484,
    "lng": -114.0671,
    "zip": "A1B 2BC",
    "address": "22 Main St",
    "cityId": 14
  },
  {
    "id": 23,
    "lat": 51.0457,
    "lng": -114.072,
    "zip": "A1B 2BC",
    "address": "23 Main St",
    "cityId": 14
  },
  {
    "id": 24,
    "lat": 51.0491,
    "lng": -114.0705,
    "zip": "A1B 2BC",
    "address": "24 Main St",
    "cityId": 14
  },
  {
    "id": 25,
    "lat": 51.0475,
    "lng": -114.0689,
    "zip": "A1B 2BC",
    "address": "25 Main St",
    "cityId": 14
  },
  {
    "id": 26,
    "lat": 51.046,
    "lng": -114.0712,
    "zip": "A1B 2BC",
    "address": "26 Main St",
    "cityId": 14
  },
  {
    "id": 27,
    "lat": 51.0503,
    "lng": -114.0695,
    "zip": "A1B 2BC",
    "address": "27 Main St",
    "cityId": 14
  },
  {
    "id": 28,
    "lat": 51.0488,
    "lng": -114.0739,
    "zip": "A1B 2BC",
    "address": "28 Main St",
    "cityId": 14
  },
  {
    "id": 29,
    "lat": 51.0454,
    "lng": -114.0754,
    "zip": "A1B 2BC",
    "address": "29 Main St",
    "cityId": 14
  },
  {
    "id": 30,
    "lat": 51.0497,
    "lng": -114.0719,
    "zip": "A1B 2BC",
    "address": "30 Main St",
    "cityId": 14
  },
  {
    "id": 31,
    "lat": 51.0473,
    "lng": -114.0706,
    "zip": "A1B 2BC",
    "address": "31 Main St",
    "cityId": 14
  },
  {
    "id": 32,
    "lat": 51.0466,
    "lng": -114.0681,
    "zip": "A1B 2BC",
    "address": "32 Main St",
    "cityId": 14
  },
  {
    "id": 33,
    "lat": 51.0502,
    "lng": -114.0727,
    "zip": "A1B 2BC",
    "address": "33 Main St",
    "cityId": 14
  },
  {
    "id": 34,
    "lat": 51.0481,
    "lng": -114.069,
    "zip": "A1B 2BC",
    "address": "34 Main St",
    "cityId": 14
  },
  {
    "id": 35,
    "lat": 51.0458,
    "lng": -114.0731,
    "zip": "A1B 2BC",
    "address": "35 Main St",
    "cityId": 14
  },
  {
    "id": 36,
    "lat": 51.0494,
    "lng": -114.0756,
    "zip": "A1B 2BC",
    "address": "36 Main St",
    "cityId": 14
  },
  {
    "id": 37,
    "lat": 51.0476,
    "lng": -114.0713,
    "zip": "A1B 2BC",
    "address": "37 Main St",
    "cityId": 14
  },
  {
    "id": 38,
    "lat": 51.0463,
    "lng": -114.07,
    "zip": "A1B 2BC",
    "address": "38 Main St",
    "cityId": 14
  },
  {
    "id": 39,
    "lat": 51.0506,
    "lng": -114.0678,
    "zip": "A1B 2BC",
    "address": "39 Main St",
    "cityId": 14
  },
  {
    "id": 40,
    "lat": 51.0485,
    "lng": -114.0742,
    "zip": "A1B 2BC",
    "address": "40 Main St",
    "cityId": 14
  },
  {
    "id": 41,
    "lat": 51.0456,
    "lng": -114.0698,
    "zip": "A1B 2BC",
    "address": "41 Main St",
    "cityId": 14
  },
  {
    "id": 42,
    "lat": 51.0492,
    "lng": -114.0724,
    "zip": "A1B 2BC",
    "address": "42 Main St",
    "cityId": 14
  },
  {
    "id": 43,
    "lat": 51.047,
    "lng": -114.0685,
    "zip": "A1B 2BC",
    "address": "43 Main St",
    "cityId": 14
  },
  {
    "id": 44,
    "lat": 51.0468,
    "lng": -114.073,
    "zip": "A1B 2BC",
    "address": "44 Main St",
    "cityId": 14
  },
  {
    "id": 45,
    "lat": 51.0504,
    "lng": -114.0716,
    "zip": "A1B 2BC",
    "address": "45 Main St",
    "cityId": 14
  },
  {
    "id": 46,
    "lat": 51.048,
    "lng": -114.0688,
    "zip": "A1B 2BC",
    "address": "46 Main St",
    "cityId": 14
  },
  {
    "id": 47,
    "lat": 51.0453,
    "lng": -114.0714,
    "zip": "A1B 2BC",
    "address": "47 Main St",
    "cityId": 14
  },
  {
    "id": 48,
    "lat": 51.0496,
    "lng": -114.0707,
    "zip": "A1B 2BC",
    "address": "48 Main St",
    "cityId": 14
  },
  {
    "id": 49,
    "lat": 51.0472,
    "lng": -114.072,
    "zip": "A1B 2BC",
    "address": "49 Main St",
    "cityId": 14
  },
  {
    "id": 50,
    "lat": 51.2917,
    "lng": -114.0144,
    "zip": "T4B 2A4",
    "address": "305 1 Ave NW",
    "cityId": 1
  }
]
